LEMUR-1                 
1 40044U 14033AL  26187.35920270  .00002160  00000+0  25243-3 0  9992
2 40044  97.7901 336.7410 0048518  16.9645 343.3179 14.85319108648310
LEMUR-2-GREENBERG       
1 42837U 17042N   26187.29484951  .00017314  00000+0  56262-3 0  9993
2 42837  97.3832   7.8397 0007196 297.9153  62.1359 15.31956298491314
LEMUR-2-ANDIS           
1 42838U 17042P   26187.01867926  .00023464  00000+0  67733-3 0  9999
2 42838  97.3686   7.8149 0007135 296.9614  63.0900 15.35656505491348
LEMUR-2-MONSON          
1 42839U 17042Q   26186.95252722  .00015912  00000+0  57413-3 0  9997
2 42839  97.4093   7.4417 0005137 288.1128  71.9552 15.28584381491030
LEMUR-2-FURIAUS         
1 42840U 17042R   26187.43255173  .00018651  00000+0  62538-3 0  9993
2 42840  97.3781   5.8885 0006724   4.0809 356.0486 15.30929761491154
LEMUR-2-PETERG          
1 42841U 17042S   26187.47065099  .00024549  00000+0  72866-3 0  9992
2 42841  97.4000  12.5429 0002864 263.6027  96.4890 15.34790924491396
LEMUR-2-DEMBITZ         
1 42842U 17042T   26187.45219817  .00017223  00000+0  57818-3 0  9991
2 42842  97.3834   8.9463 0005291 313.9812  46.0993 15.30918269491290
LEMUR-2-ZACHARY         
1 42845U 17042W   26187.47928301  .00051075  00000+0  84327-3 0  9999
2 42845  97.3592  19.5481 0002339 292.4564  67.6440 15.52103423492195
LEMUR-2-AMANDA-SVANTE   
1 48269U 21034B   26187.19863294  .00035315  00000+0  10207-2 0  9993
2 48269  97.5745 266.0000 0004036 164.2126 195.9244 15.35552160283973
LEMUR-2-SPECIAL-K       
1 48273U 21034F   26187.23722578  .00241712  00000+0  18453-2 0  9993
2 48273  97.5636 275.5626 0005773 220.9079 139.1750 15.71456484284674
LEMUR-2-EMBRIONOVIS     
1 56970U 23084AQ  26187.33247503  .00014178  00000+0  38021-3 0  9992
2 56970  97.6316 332.2754 0007701 241.1280 118.9192 15.38065403170622
LEMUR-2-DEVERILL-M-T    
1 57391U 23100F   26187.07492937  .00029242  00000+0  71542-3 0  9996
2 57391  99.4455 231.3007 0004901 336.6467  23.4549 15.40758903164154
LEMUR-2-BASS            
1 58259U 23174D   26187.27146355  .00019591  00000+0  43403-3 0  9994
2 58259  97.3840 272.2582 0007961 104.5556 255.6575 15.43777944148301
LEMUR-2-JK0903EM1407    
1 58336U 23174CJ  26187.35538311  .00028950  00000+0  46927-3 0  9999
2 58336  97.3916 278.3791 0004355  61.4192 298.7499 15.52728336148709
LEMUR-2-MJR092620       
1 58340U 23174CN  26187.19763673  .00020481  00000+0  42637-3 0  9992
2 58340  97.3970 277.5857 0006146  59.8947 300.2910 15.45621998148588
LEMUR-2-NIMBUS2000      
1 58899U 24022A   26187.11256276  .00023449  00000+0  57195-3 0  9994
2 58899  97.4093  37.3587 0009612  58.1498 302.0683 15.40835853135181
LEMUR-2-VALHALLA        
1 58900U 24022B   26187.11394680  .00016850  00000+0  41937-3 0  9994
2 58900  97.4091  37.3384 0010110  54.0939 306.1244 15.40286731135180
LEMUR-2-CAEL            
1 58903U 24022E   26187.17244902  .00017904  00000+0  42629-3 0  9994
2 58903  97.4074  38.3674 0008082  40.2046 319.9797 15.41636766135260
LEMUR-2-JOHNNYTRUONG    
1 59146U 24043BA  26187.37894101  .00043037  00000+0  49242-3 0  9995
2 59146  97.5393 340.2928 0004447 119.3476 240.8226 15.62025124131031
LEMUR-2-TOMATOKECHUP    
1 60471U 24149D   26187.19245734  .00011416  00000+0  32314-3 0  9995
2 60471  97.3790 269.2922 0002876 138.8733 221.2729 15.36452734105082
LEMUR-2-STELLA          
1 60533U 24149BT  26187.20753330  .00011054  00000+0  64278-3 0  9994
2 60533  97.6729 269.7502 0001233 106.4142 253.7224 15.12244663103370
LEMUR-2-MARHISYAM       
1 60536U 24149BW  26187.19494461  .00010677  00000+0  63118-3 0  9994
2 60536  97.6870 270.2058 0002871  83.2434 276.9123 15.11655906103356
LEMUR-2-AHMED-ASRAR     
1 60576U 24149DN  26187.21049885  .00011508  00000+0  65203-3 0  9998
2 60576  97.6996 272.3888 0000456 269.2957  90.8221 15.13172128103440
LEMUR-2-LLOYD           
1 60577U 24149DP  26187.20079730  .00009691  00000+0  60592-3 0  9996
2 60577  97.6737 268.3441 0005043  93.4282 266.7523 15.09635414103265
LEMUR-2-SQUIRRELCOMM    
1 60578U 24149DQ  26187.17583308  .00007246  00000+0  48284-3 0  9992
2 60578  97.6702 268.0291 0004922 359.7505   0.3719 15.07381618103260
LEMUR-2-SIERRINI        
1 60579U 24149DR  26187.22222315  .00011635  00000+0  69227-3 0  9994
2 60579  97.6837 269.9031 0006600 113.2698 246.9227 15.11385219103339
LEMUR-2-WILSON          
1 62694U 25009CP  26187.16776308  .00003349  00000+0  30951-3 0  9994
2 62694  97.7019 265.2997 0002654   8.5969 351.5297 14.95253729 80193
LEMUR-2-STAR-FOX        
1 62696U 25009CR  26187.20463988  .00007286  00000+0  54907-3 0  9999
2 62696  97.6928 268.6782 0003531  71.7740 288.3869 15.02771340 80416
LEMUR-2-ARIANNA         
1 62699U 25009CU  26187.20310691  .00007087  00000+0  53415-3 0  9996
2 62699  97.6866 268.4362 0003872  76.7600 283.4057 15.02770802 80417
LEMUR-2-ALISIA          
1 62706U 25009DB  26187.17739442  .00009054  00000+0  67552-3 0  9993
2 62706  97.6949 269.2183 0003349 158.7297 201.4068 15.03079135103016
